{"type": "FeatureCollection", "features": [ {"type": "Feature", "properties": {"norad_id": 30928, "name": "FENGYUN 1C DEB", "group": "fengyun-1c-debris", "lat": -78.10992543681716, "lon": 130.92745221677197, "alt_km": 1192.1257164050894, "timestamp": "2025-12-20T20:38:44.722228+00:00", "meta": {"OBJECT_NAME": "FENGYUN 1C DEB", "OBJECT_ID": "1999-025AZS", "EPOCH": "2025-12-19T12:26:02.994144", "MEAN_MOTION": 13.22247272, "ECCENTRICITY": 0.0449948, "INCLINATION": 98.8828, "RA_OF_ASC_NODE": 81.8196, "ARG_OF_PERICENTER": 15.2532, "MEAN_ANOMALY": 2.3605, "EPHEMERIS_TYPE": 0, "CLASSIFICATION_TYPE": "U", "NORAD_CAT_ID": 30928, "ELEMENT_SET_NO": 999, "REV_AT_EPOCH": 90438, "BSTAR": 0.00085384, "MEAN_MOTION_DOT": 5.72e-06, "MEAN_MOTION_DDOT": 0}, "tle": {"line1": "1 30928U 99025AZS 25353.51809021  .00000572  00000+0  85384-3 0  9995", "line2": "2 30928  98.8828  81.8196 0449948  15.2532   2.3605 13.22247272904388"}}, "geometry": {"type": "Point", "coordinates": [130.92745221677197, -78.10992543681716]}}, {"type": "Feature", "properties": {"norad_id": 30930, "name": "FENGYUN 1C DEB", "group": "fengyun-1c-debris", "lat": -7.079380755586054, "lon": -158.23663597883126, "alt_km": 790.3193396063143, "timestamp": "2025-12-20T20:38:44.722238+00:00", "meta": {"OBJECT_NAME": "FENGYUN 1C DEB", "OBJECT_ID": "1999-025AZU", "EPOCH": "2025-12-18T01:06:04.413024", "MEAN_MOTION": 14.37401649, "ECCENTRICITY": 0.01097658, "INCLINATION": 98.2147, "RA_OF_ASC_NODE": 20.1023, "ARG_OF_PERICENTER": 90.5552, "MEAN_ANOMALY": 300.4035, "EPHEMERIS_TYPE": 0, "CLASSIFICATION_TYPE": "U", "NORAD_CAT_ID": 30930, "ELEMENT_SET_NO": 999, "REV_AT_EPOCH": 98408, "BSTAR": 0.00027412907, "MEAN_MOTION_DOT": 8.36e-06, "MEAN_MOTION_DDOT": 0}, "tle": {"line1": "1 30930U 99025AZU 25352.04588441  .00000836  00000+0  27413-3 0  9997", "line2": "2 30930  98.2147  20.1023 0109765  90.5552 300.4035 14.37401649984083"}}, "geometry": {"type": "Point", "coordinates": [-158.23663597883126, -7.079380755586054]}}, {"type": "Feature", "properties": {"norad_id": 30931, "name": "FENGYUN 1C DEB", "group": "fengyun-1c-debris", "lat": 52.494836936595505, "lon": 40.28200113685229, "alt_km": 827.6613496959908, "timestamp": "2025-12-20T20:38:44.722248+00:00", "meta": {"OBJECT_NAME": "FENGYUN 1C DEB", "OBJECT_ID": "1999-025AZV", "EPOCH": "2025-12-19T22:58:08.275008", "MEAN_MOTION": 14.01524482, "ECCENTRICITY": 0.009291, "INCLINATION": 99.1714, "RA_OF_ASC_NODE": 51.5262, "ARG_OF_PERICENTER": 21.5866, "MEAN_ANOMALY": 156.7563, "EPHEMERIS_TYPE": 0, "CLASSIFICATION_TYPE": "U", "NORAD_CAT_ID": 30931, "ELEMENT_SET_NO": 999, "REV_AT_EPOCH": 96026, "BSTAR": 0.00041538, "MEAN_MOTION_DOT": 6.07e-06, "MEAN_MOTION_DDOT": 0}, "tle": {"line1": "1 30931U 99025AZV 25353.95704022  .00000607  00000+0  41538-3 0  9994", "line2": "2 30931  99.1714  51.5262 0092910  21.5866 156.7563 14.01524482960266"}}, "geometry": {"type": "Point", "coordinates": [40.28200113685229, 52.494836936595505]}}, {"type": "Feature", "properties": {"norad_id": 30932, "name": "FENGYUN 1C DEB", "group": "fengyun-1c-debris", "lat": 2.3033626969509773, "lon": -72.4520909237954, "alt_km": 805.7910984743021, "timestamp": "2025-12-20T20:38:44.722258+00:00", "meta": {"OBJECT_NAME": "FENGYUN 1C DEB", "OBJECT_ID": "1999-025AZW", "EPOCH": "2025-12-19T12:39:33.490080", "MEAN_MOTION": 14.2688755, "ECCENTRICITY": 0.0057242, "INCLINATION": 98.9092, "RA_OF_ASC_NODE": 286.5528, "ARG_OF_PERICENTER": 274.4941, "MEAN_ANOMALY": 84.9701, "EPHEMERIS_TYPE": 0, "CLASSIFICATION_TYPE": "U", "NORAD_CAT_ID": 30932, "ELEMENT_SET_NO": 999, "REV_AT_EPOCH": 96491, "BSTAR": 0.0017748, "MEAN_MOTION_DOT": 4.34e-05, "MEAN_MOTION_DDOT": 0}, "tle": {"line1": "1 30932U 99025AZW 25353.52747095  .00004340  00000+0  17748-2 0  9998", "line2": "2 30932  98.9092 286.5528 0057242 274.4941  84.9701 14.26887550964917"}}, "geometry": {"type": "Point", "coordinates": [-72.4520909237954, 2.3033626969509773]}}, {"type": "Feature", "properties": {"norad_id": 30933, "name": "FENGYUN 1C DEB", "group": "fengyun-1c-debris", "lat": -3.7831606667821807, "lon": 157.1563800251736, "alt_km": 796.0685560850707, "timestamp": "2025-12-20T20:38:44.722268+00:00", "meta": {"OBJECT_NAME": "FENGYUN 1C DEB", "OBJECT_ID": "1999-025AZX", "EPOCH": "2025-12-19T22:18:47.421792", "MEAN_MOTION": 14.36676706, "ECCENTRICITY": 0.0076083, "INCLINATION": 99.0476, "RA_OF_ASC_NODE": 336.7828, "ARG_OF_PERICENTER": 302.1062, "MEAN_ANOMALY": 112.3858, "EPHEMERIS_TYPE": 0, "CLASSIFICATION_TYPE": "U", "NORAD_CAT_ID": 30933, "ELEMENT_SET_NO": 999, "REV_AT_EPOCH": 95975, "BSTAR": 0.0030814, "MEAN_MOTION_DOT": 9.344e-05, "MEAN_MOTION_DDOT": 0}, "tle": {"line1": "1 30933U 99025AZX 25353.92971553  .00009344  00000+0  30814-2 0  9999", "line2": "2 30933  99.0476 336.7828 0076083 302.1062 112.3858 14.36676706959759"}}, "geometry": {"type": "Point", "coordinates": [157.1563800251736, -3.7831606667821807]}}, {"type": "Feature", "properties": {"norad_id": 30934, "name": "FENGYUN 1C DEB", "group": "fengyun-1c-debris", "lat": 17.820193970921995, "lon": -131.98004460596587, "alt_km": 893.4434913754467, "timestamp": "2025-12-20T20:38:44.722279+00:00", "meta": {"OBJECT_NAME": "FENGYUN 1C DEB", "OBJECT_ID": "1999-025AZY", "EPOCH": "2025-12-19T07:07:05.795904", "MEAN_MOTION": 13.46765205, "ECCENTRICITY": 0.0341026, "INCLINATION": 98.7656, "RA_OF_ASC_NODE": 229.4909, "ARG_OF_PERICENTER": 64.8184, "MEAN_ANOMALY": 298.7907, "EPHEMERIS_TYPE": 0, "CLASSIFICATION_TYPE": "U", "NORAD_CAT_ID": 30934, "ELEMENT_SET_NO": 999, "REV_AT_EPOCH": 91796, "BSTAR": 0.0018122, "MEAN_MOTION_DOT": 1.527e-05, "MEAN_MOTION_DDOT": 0}, "tle": {"line1": "1 30934U 99025AZY 25353.29659486  .00001527  00000+0  18122-2 0  9991", "line2": "2 30934  98.7656 229.4909 0341026  64.8184 298.7907 13.46765205917967"}}, "geometry": {"type": "Point", "coordinates": [-131.98004460596587, 17.820193970921995]}}, {"type": "Feature", "properties": {"norad_id": 30936, "name": "FENGYUN 1C DEB", "group": "fengyun-1c-debris", "lat": 49.45256553313649, "lon": -144.37466025647848, "alt_km": 833.4896342588863, "timestamp": "2025-12-20T20:38:44.722289+00:00", "meta": {"OBJECT_NAME": "FENGYUN 1C DEB", "OBJECT_ID": "1999-025BAA", "EPOCH": "2025-12-20T08:47:48.941088", "MEAN_MOTION": 14.23389477, "ECCENTRICITY": 0.00459974, "INCLINATION": 98.5808, "RA_OF_ASC_NODE": 24.9786, "ARG_OF_PERICENTER": 268.0936, "MEAN_ANOMALY": 213.5902, "EPHEMERIS_TYPE": 0, "CLASSIFICATION_TYPE": "U", "NORAD_CAT_ID": 30936, "ELEMENT_SET_NO": 999, "REV_AT_EPOCH": 97241, "BSTAR": 0.00036958775, "MEAN_MOTION_DOT": 8.04e-06, "MEAN_MOTION_DDOT": 0}, "tle": {"line1": "1 30936U 99025BAA 25354.36653867  .00000804  00000+0  36959-3 0  9995", "line2": "2 30936  98.5808  24.9786 0045997 268.0936 213.5902 14.23389477972418"}}, "geometry": {"type": "Point", "coordinates": [-144.37466025647848, 49.45256553313649]}}, {"type": "Feature", "properties": {"norad_id": 30937, "name": "FENGYUN 1C DEB", "group": "fengyun-1c-debris", "lat": -48.679111538136205, "lon": -143.38170061345866, "alt_km": 968.1076558206632, "timestamp": "2025-12-20T20:38:44.722300+00:00", "meta": {"OBJECT_NAME": "FENGYUN 1C DEB", "OBJECT_ID": "1999-025BAB", "EPOCH": "2025-12-20T15:07:10.111296", "MEAN_MOTION": 13.95588239, "ECCENTRICITY": 0.00754939, "INCLINATION": 99.088, "RA_OF_ASC_NODE": 46.8809, "ARG_OF_PERICENTER": 31.7873, "MEAN_ANOMALY": 121.6881, "EPHEMERIS_TYPE": 0, "CLASSIFICATION_TYPE": "U", "NORAD_CAT_ID": 30937, "ELEMENT_SET_NO": 999, "REV_AT_EPOCH": 95826, "BSTAR": 6.0237908e-05, "MEAN_MOTION_DOT": 4e-07, "MEAN_MOTION_DDOT": 0}, "tle": {"line1": "1 30937U 99025BAB 25354.62997814  .00000040  00000+0  60238-4 0  9998", "line2": "2 30937  99.0880  46.8809 0075493  31.7873 121.6881 13.95588239958260"}}, "geometry": {"type": "Point", "coordinates": [-143.38170061345866, -48.679111538136205]}}, {"type": "Feature", "properties": {"norad_id": 30938, "name": "FENGYUN 1C DEB", "group": "fengyun-1c-debris", "lat": -59.90052852765897, "lon": 23.2292892699858, "alt_km": 802.3952290311072, "timestamp": "2025-12-20T20:38:44.722310+00:00", "meta": {"OBJECT_NAME": "FENGYUN 1C DEB", "OBJECT_ID": "1999-025BAC", "EPOCH": "2025-12-20T07:28:29.449344", "MEAN_MOTION": 14.19829984, "ECCENTRICITY": 0.00455347, "INCLINATION": 98.5904, "RA_OF_ASC_NODE": 7.5809, "ARG_OF_PERICENTER": 321.6523, "MEAN_ANOMALY": 54.0711, "EPHEMERIS_TYPE": 0, "CLASSIFICATION_TYPE": "U", "NORAD_CAT_ID": 30938, "ELEMENT_SET_NO": 999, "REV_AT_EPOCH": 97227, "BSTAR": 0.00026359617, "MEAN_MOTION_DOT": 5.22e-06, "MEAN_MOTION_DDOT": 0}, "tle": {"line1": "1 30938U 99025BAC 25354.31145196  .00000522  00000+0  26360-3 0  9995", "line2": "2 30938  98.5904   7.5809 0045534 321.6523  54.0711 14.19829984972272"}}, "geometry": {"type": "Point", "coordinates": [23.2292892699858, -59.90052852765897]}}, {"type": "Feature", "properties": {"norad_id": 30940, "name": "FENGYUN 1C DEB", "group": "fengyun-1c-debris", "lat": -65.84364081800224, "lon": 155.0700281914553, "alt_km": 873.9622173762273, "timestamp": "2025-12-20T20:38:44.722320+00:00", "meta": {"OBJECT_NAME": "FENGYUN 1C DEB", "OBJECT_ID": "1999-025BAE", "EPOCH": "2025-12-19T11:47:40.505856", "MEAN_MOTION": 14.08314856, "ECCENTRICITY": 0.0040825, "INCLINATION": 98.6224, "RA_OF_ASC_NODE": 353.5356, "ARG_OF_PERICENTER": 344.5495, "MEAN_ANOMALY": 167.3735, "EPHEMERIS_TYPE": 0, "CLASSIFICATION_TYPE": "U", "NORAD_CAT_ID": 30940, "ELEMENT_SET_NO": 999, "REV_AT_EPOCH": 96227, "BSTAR": 0.00030983, "MEAN_MOTION_DOT": 4.92e-06, "MEAN_MOTION_DDOT": 0}, "tle": {"line1": "1 30940U 99025BAE 25353.49144104  .00000492  00000+0  30983-3 0  9996", "line2": "2 30940  98.6224 353.5356 0040825 344.5495 167.3735 14.08314856962270"}}, "geometry": {"type": "Point", "coordinates": [155.0700281914553, -65.84364081800224]}}]}